[{"OBJECT_NAME":"STARLINK-33928","OBJECT_ID":"2025-101K","EPOCH":"2026-03-09T03:03:54.342720","MEAN_MOTION":15.27605382,"ECCENTRICITY":0.00010088,"INCLINATION":43.001,"RA_OF_ASC_NODE":0.7654,"ARG_OF_PERICENTER":269.0947,"MEAN_ANOMALY":90.9789,"EPHEMERIS_TYPE":0,"CLASSIFICATION_TYPE":"U","NORAD_CAT_ID":64003,"ELEMENT_SET_NO":999,"REV_AT_EPOCH":4697,"BSTAR":0.00073480393,"MEAN_MOTION_DOT":0.00020029,"MEAN_MOTION_DDOT":0},{"OBJECT_NAME":"KIRARI (OICETS)","OBJECT_ID":"2005-031A","EPOCH":"2026-03-09T15:02:18.043872","MEAN_MOTION":15.22934858,"ECCENTRICITY":0.0019783,"INCLINATION":98.0768,"RA_OF_ASC_NODE":316.1697,"ARG_OF_PERICENTER":5.9068,"MEAN_ANOMALY":354.2396,"EPHEMERIS_TYPE":0,"CLASSIFICATION_TYPE":"U","NORAD_CAT_ID":28809,"ELEMENT_SET_NO":999,"REV_AT_EPOCH":12344,"BSTAR":0.00027776,"MEAN_MOTION_DOT":6.472e-5,"MEAN_MOTION_DDOT":0}]
